{
  "norad_id": 38977,
  "name": "LUCH-5B",
  "history": [
    {
      "epoch": "2026-03-28T16:25:03.415584Z",
      "apogee_km": 35799.86383206425,
      "perigee_km": 35772.465468851784,
      "latitude_deg": 0.9524975056546475,
      "longitude_deg": -16.414289621662604,
      "height_km": 35796.29640474658,
      "semi_major_axis_km": 42164.301650458016,
      "eccentricity": 0.0003249,
      "inclination_deg": 10.3113,
      "raan_deg": 50.6629,
      "arg_perigee_deg": 223.4776,
      "mean_anomaly_deg": 141.8589,
      "mean_motion_rev_day": 1.0027332
    },
    {
      "epoch": "2026-03-29T04:23:51.968832Z",
      "apogee_km": 35799.58626395115,
      "perigee_km": 35772.7318238008,
      "latitude_deg": -0.9817283121980633,
      "longitude_deg": -16.452099820439244,
      "height_km": 35775.31857046933,
      "semi_major_axis_km": 42164.29604387598,
      "eccentricity": 0.00031845,
      "inclination_deg": 10.3126,
      "raan_deg": 50.6584,
      "arg_perigee_deg": 223.754,
      "mean_anomaly_deg": 321.7844,
      "mean_motion_rev_day": 1.0027334
    },
    {
      "epoch": "2026-03-30T16:20:14.110368Z",
      "apogee_km": 35799.248546279276,
      "perigee_km": 35773.05440370707,
      "latitude_deg": 1.0945849399606562,
      "longitude_deg": -16.418695081140353,
      "height_km": 35795.60962056246,
      "semi_major_axis_km": 42164.288474993176,
      "eccentricity": 0.00031062,
      "inclination_deg": 10.316,
      "raan_deg": 50.6445,
      "arg_perigee_deg": 225.5375,
      "mean_anomaly_deg": 140.5904,
      "mean_motion_rev_day": 1.00273367
    },
    {
      "epoch": "2026-03-31T16:17:41.665344Z",
      "apogee_km": 35798.553746512946,
      "perigee_km": 35773.69369839098,
      "latitude_deg": 1.1609881679824776,
      "longitude_deg": -16.419985748864868,
      "height_km": 35794.888689023544,
      "semi_major_axis_km": 42164.26072245197,
      "eccentricity": 0.0002948,
      "inclination_deg": 10.3188,
      "raan_deg": 50.6357,
      "arg_perigee_deg": 227.1405,
      "mean_anomaly_deg": 139.3517,
      "mean_motion_rev_day": 1.00273466
    },
    {
      "epoch": "2026-04-01T16:15:18.345024Z",
      "apogee_km": 35797.81479165993,
      "perigee_km": 35774.39677121911,
      "latitude_deg": 1.234461889676314,
      "longitude_deg": -16.422477561356114,
      "height_km": 35794.19207680405,
      "semi_major_axis_km": 42164.24278143952,
      "eccentricity": 0.0002777,
      "inclination_deg": 10.3207,
      "raan_deg": 50.6265,
      "arg_perigee_deg": 228.4925,
      "mean_anomaly_deg": 138.4023,
      "mean_motion_rev_day": 1.0027353
    },
    {
      "epoch": "2026-04-02T17:01:55.521696Z",
      "apogee_km": 35797.305742548655,
      "perigee_km": 35774.89460720546,
      "latitude_deg": 3.44388232904788,
      "longitude_deg": -16.60607683087189,
      "height_km": 35794.86382380425,
      "semi_major_axis_km": 42164.23717487706,
      "eccentricity": 0.00026576,
      "inclination_deg": 10.3227,
      "raan_deg": 50.6168,
      "arg_perigee_deg": 230.0155,
      "mean_anomaly_deg": 149.5671,
      "mean_motion_rev_day": 1.0027355
    },
    {
      "epoch": "2026-04-03T16:10:18.004800Z",
      "apogee_km": 35796.6426152598,
      "perigee_km": 35775.577357465416,
      "latitude_deg": 1.3713638647544004,
      "longitude_deg": -16.42728980874553,
      "height_km": 35793.22876313758,
      "semi_major_axis_km": 42164.24698636261,
      "eccentricity": 0.0002498,
      "inclination_deg": 10.3257,
      "raan_deg": 50.6078,
      "arg_perigee_deg": 229.9149,
      "mean_anomaly_deg": 137.7271,
      "mean_motion_rev_day": 1.00273515
    },
    {
      "epoch": "2026-04-04T04:09:06.606432Z",
      "apogee_km": 35796.415844929405,
      "perigee_km": 35775.74525891675,
      "latitude_deg": -1.4031070237707348,
      "longitude_deg": -16.456687279201123,
      "height_km": 35778.09141059281,
      "semi_major_axis_km": 42164.21755192308,
      "eccentricity": 0.00024512,
      "inclination_deg": 10.3265,
      "raan_deg": 50.6027,
      "arg_perigee_deg": 229.3603,
      "mean_anomaly_deg": 318.4857,
      "mean_motion_rev_day": 1.0027362
    }
  ]
}